     2.100          NAVIGATION                              RINEX VERSION / TYPE
fic2rin                                 12/04/2016 00:23:38 PGM / RUN BY / DATE
                                                            END OF HEADER
26 16 12  3  1 59 44.0 -.507290940732D-03 -.375166564481D-11  .000000000000D+00
     .200000000000D+01  .560625000000D+02  .480162857853D-08  .138016551997D+01
     .307708978653D-05  .133333529811D-02  .178441405296D-05  .515361997986D+04
     .525584000000D+06  .521540641785D-07 -.137138978309D+01 -.931322574615D-08
     .959640767953D+00  .341156250000D+03 -.199002433067D+00 -.843820862812D-08
     .585738684082D-10  .100000000000D+01  .192500000000D+04  .000000000000D+00
     .240000000000D+01  .000000000000D+00  .745058059692D-08  .200000000000D+01
     .520056000000D+06  .400000000000D+01
 3 16 12  3  1 59 44.0 -.101083889604D-03 -.159161572810D-11  .000000000000D+00
     .220000000000D+02  .176875000000D+02  .479055668877D-08  .208434967502D+01
     .966712832451D-06  .383903738111D-03  .626221299171D-05  .515356031418D+04
     .525584000000D+06  .260770320892D-07  .178071647214D+01  .279396772385D-07
     .959023659368D+00  .256218750000D+03  .886849863005D+00 -.810783772399D-08
     .346085844436D-09  .100000000000D+01  .192500000000D+04  .000000000000D+00
     .240000000000D+01  .000000000000D+00  .186264514923D-08  .220000000000D+02
     .520176000000D+06  .400000000000D+01
16 16 12  3  1 59 44.0  .179233029485D-04  .147792889038D-11  .000000000000D+00
     .000000000000D+00  .395625000000D+02  .415231581776D-08  .315311433598D+00
     .216811895370D-05  .882584217470D-02  .190176069736D-05  .515360655594D+04
     .525584000000D+06  .111758708954D-06 -.128703399285D+01  .100582838058D-06
     .990188169563D+00  .354531250000D+03  .381226034017D+00 -.821427072878D-08
     .271439877989D-10  .100000000000D+01  .192500000000D+04  .000000000000D+00
     .240000000000D+01  .000000000000D+00 -.102445483208D-07  .000000000000D+00
     .522966000000D+06  .400000000000D+01
 3 16 12  3  3 59 44.0 -.101095531136D-03 -.159161572810D-11  .000000000000D+00
     .230000000000D+02  .195000000000D+02  .475591238856D-08  .313410871287D+01
     .106170773506D-05  .383573467843D-03  .622868537903D-05  .515356103325D+04
     .532784000000D+06  .558793544769D-08  .178065821142D+01  .633299350739D-07
     .959026188753D+00  .258250000000D+03  .887342600147D+00 -.808855120634D-08
     .331442377334D-09  .100000000000D+01  .192500000000D+04  .000000000000D+00
     .240000000000D+01  .000000000000D+00  .186264514923D-08  .230000000000D+02
     .525606000000D+06  .400000000000D+01
16 16 12  3  3 59 44.0  .179340131581D-04  .147792889038D-11  .000000000000D+00
     .400000000000D+01  .457187500000D+02  .414338687441D-08  .136538693135D+01
     .262074172497D-05  .882684276439D-02  .259280204773D-05  .515360961914D+04
     .532784000000D+06  .223517417908D-07 -.128709280362D+01  .165775418282D-06
     .990188254412D+00  .344906250000D+03  .381368867487D+00 -.817641200895D-08
     .103575742917D-10  .100000000000D+01  .192500000000D+04  .000000000000D+00
     .240000000000D+01  .000000000000D+00 -.102445483208D-07  .400000000000D+01
     .525606000000D+06  .400000000000D+01
26 16 12  3  3 59 44.0 -.507317949086D-03 -.375166564481D-11  .000000000000D+00
     .300000000000D+01  .564375000000D+02  .479234247744D-08  .242947260830D+01
     .305846333504D-05  .133311515674D-02  .241957604885D-05  .515362226868D+04
     .532784000000D+06 -.335276126862D-07 -.137145111739D+01  .115483999252D-06
     .959641658870D+00  .332000000000D+03 -.198094320818D+00 -.840999316712D-08
     .180364655769D-09  .100000000000D+01  .192500000000D+04  .000000000000D+00
     .240000000000D+01  .000000000000D+00  .745058059692D-08  .300000000000D+01
     .525606000000D+06  .400000000000D+01
 1 16 12  3  4  0  0.0  .424180179834D-04  .125055521494D-11  .000000000000D+00
     .610000000000D+02 -.466562500000D+02  .408159858639D-08 -.174562181204D+01
    -.240653753281D-05  .601999217179D-02  .108815729618D-04  .515370157433D+04
     .532800000000D+06  .000000000000D+00  .738575246635D+00 -.132247805595D-06
     .965974881394D+00  .173218750000D+03  .562691774645D+00 -.762781772923D-08
     .286797660559D-09  .100000000000D+01  .192500000000D+04  .000000000000D+00
     .240000000000D+01  .000000000000D+00  .512227416039D-08  .610000000000D+02
     .525606000000D+06  .400000000000D+01
 2 16 12  3  4  0  0.0  .516453292221D-03 -.579802872380D-11  .000000000000D+00
     .940000000000D+02 -.587187500000D+02  .467805200250D-08 -.127904925285D+01
    -.291690230370D-05  .162226853427D-01  .105164945126D-04  .515368836212D+04
     .532800000000D+06  .352039933205D-06  .688968254865D+00  .337138772011D-06
     .944860239507D+00  .167656250000D+03 -.206148438540D+01 -.798783272530D-08
     .159649507186D-09  .100000000000D+01  .192500000000D+04  .000000000000D+00
     .340000000000D+01  .000000000000D+00 -.200234353542D-07  .940000000000D+02
     .525606000000D+06  .400000000000D+01
 4 16 12  3  4  0  0.0  .209929421544D-04  .306954461848D-11  .000000000000D+00
     .980000000000D+02 -.368750000000D+01  .446590030839D-08  .178638790271D+01
    -.229105353355D-06  .829748378601D-02  .795535743237D-05  .515373654747D+04
     .532800000000D+06  .180676579475D-06  .294037174622D+01  .428408384323D-07
     .966208235846D+00  .227687500000D+03 -.941299172135D+00 -.777496671571D-08
    -.511807033103D-09  .100000000000D+01  .192500000000D+04  .000000000000D+00
     .685000000000D+01  .630000000000D+02 -.419095158577D-08  .980000000000D+02
     .525606000000D+06  .400000000000D+01
 5 16 12  3  4  0  0.0 -.744145363569D-04  .227373675443D-11  .000000000000D+00
     .280000000000D+02  .155312500000D+02  .507056835238D-08  .118907979829D+01
     .964850187302D-06  .489149114583D-02  .656582415104D-05  .515363605881D+04
     .532800000000D+06 -.372529029846D-07  .176620131996D+01  .186264514923D-07
     .946034727195D+00  .246218750000D+03  .561488609374D+00 -.824355766298D-08
     .278940190407D-09  .100000000000D+01  .192500000000D+04  .000000000000D+00
     .240000000000D+01  .000000000000D+00 -.107102096081D-07  .280000000000D+02
     .525606000000D+06  .400000000000D+01
 6 16 12  3  4  0  0.0  .280946958810D-03  .500222085975D-11  .000000000000D+00
     .770000000000D+02 -.613125000000D+02  .420267505829D-08 -.130122903515D+01
    -.318139791489D-05  .363323255442D-03  .111572444439D-04  .515357653999D+04
     .532800000000D+06  .149011611938D-07  .730186227759D+00  .316649675369D-07
     .965781420718D+00  .167781250000D+03 -.152293258039D+01 -.777853829306D-08
     .238938524177D-09  .100000000000D+01  .192500000000D+04  .000000000000D+00
     .240000000000D+01  .000000000000D+00  .419095158577D-08  .770000000000D+02
     .525606000000D+06  .400000000000D+01
 7 16 12  3  4  0  0.0  .405586790293D-03 -.341060513165D-11  .000000000000D+00
     .590000000000D+02  .955937500000D+02  .420338937375D-08 -.238559903094D+01
     .470876693726D-05  .100439179223D-01  .983662903309D-05  .515362638855D+04
     .532800000000D+06  .782310962677D-07 -.238661616131D+01 -.191852450371D-06
     .964535094975D+00  .193562500000D+03 -.261312854942D+01 -.773210778761D-08
     .460733477113D-10  .100000000000D+01  .192500000000D+04  .000000000000D+00
     .240000000000D+01  .000000000000D+00 -.111758708954D-07  .590000000000D+02
     .525606000000D+06  .400000000000D+01
 8 16 12  3  4  0  0.0 -.410540960729D-04 -.136424205266D-11  .000000000000D+00
     .560000000000D+02 -.107000000000D+03  .444197074020D-08  .113282237654D+01
    -.573322176933D-05  .215027260128D-02  .478327274323D-05  .515355298042D+04
     .532800000000D+06  .316649675369D-07 -.322760008273D+00 -.316649675369D-07
     .965405725801D+00  .287750000000D+03 -.988494024115D+00 -.814248202420D-08
    -.312870175156D-09  .100000000000D+01  .192500000000D+04  .000000000000D+00
     .240000000000D+01  .000000000000D+00  .512227416039D-08  .560000000000D+02
     .525606000000D+06  .400000000000D+01
 9 16 12  3  4  0  0.0  .256228726357D-03  .738964445191D-11  .000000000000D+00
     .930000000000D+02 -.578125000000D+01  .474269755239D-08  .610827957356D+00
    -.381842255592D-06  .770290265791D-03  .774487853050D-05  .515373214722D+04
     .532800000000D+06  .558793544769D-08  .281851669305D+01  .167638063431D-07
     .954372754599D+00  .224093750000D+03  .174599548082D+01 -.805819279893D-08
    -.406088343781D-09  .100000000000D+01  .192500000000D+04  .000000000000D+00
     .340000000000D+01  .000000000000D+00  .139698386192D-08  .930000000000D+02
     .525606000000D+06  .400000000000D+01
10 16 12  3  4  0  0.0 -.115738715976D-03 -.568434188608D-12  .000000000000D+00
     .170000000000D+02  .187812500000D+02  .476198407004D-08  .251244546697D+01
     .104308128357D-05  .195848336443D-02  .632368028164D-05  .515367186928D+04
     .532800000000D+06 -.894069671631D-07  .177681319750D+01 -.149011611938D-07
     .959227122014D+00  .255562500000D+03 -.295158648645D+01 -.808105089392D-08
     .341442793891D-09  .100000000000D+01  .192500000000D+04  .000000000000D+00
     .240000000000D+01  .000000000000D+00  .232830643654D-08  .170000000000D+02
     .525606000000D+06  .400000000000D+01
11 16 12  3  4  0  0.0 -.672875903547D-03 -.795807864051D-12  .000000000000D+00
     .460000000000D+02 -.853750000000D+02  .551165815411D-08 -.231530332735D+01
    -.433437526226D-05  .167145255255D-01  .930018723011D-05  .515369281960D+04
     .532800000000D+06  .234693288803D-06  .348416959593D+00  .987201929092D-07
     .899096782647D+00  .162812500000D+03  .160348257315D+01 -.817748348215D-08
     .364300888880D-10  .100000000000D+01  .192500000000D+04  .000000000000D+00
     .340000000000D+01  .000000000000D+00 -.121071934700D-07  .460000000000D+02
     .525606000000D+06  .400000000000D+01
